[{"OBJECT_NAME":"STARLINK-34242","OBJECT_ID":"2025-144D","EPOCH":"2026-03-09T14:16:25.231008","MEAN_MOTION":15.30191851,"ECCENTRICITY":9.09e-5,"INCLINATION":53.1578,"RA_OF_ASC_NODE":181.7478,"ARG_OF_PERICENTER":75.9215,"MEAN_ANOMALY":284.1886,"EPHEMERIS_TYPE":0,"CLASSIFICATION_TYPE":"U","NORAD_CAT_ID":64727,"ELEMENT_SET_NO":999,"REV_AT_EPOCH":3969,"BSTAR":0.00092478,"MEAN_MOTION_DOT":0.00027123,"MEAN_MOTION_DDOT":0},{"OBJECT_NAME":"CZ-3 DEB","OBJECT_ID":"1986-010C","EPOCH":"2026-03-08T17:00:04.664448","MEAN_MOTION":3.47685137,"ECCENTRICITY":0.63234165,"INCLINATION":30.9396,"RA_OF_ASC_NODE":113.8243,"ARG_OF_PERICENTER":284.9077,"MEAN_ANOMALY":16.7395,"EPHEMERIS_TYPE":0,"CLASSIFICATION_TYPE":"U","NORAD_CAT_ID":17425,"ELEMENT_SET_NO":999,"REV_AT_EPOCH":15880,"BSTAR":0.025567892,"MEAN_MOTION_DOT":0.00022849,"MEAN_MOTION_DDOT":0}]
